CCSDS_OMM_VERS = 2.0
CREATION_DATE  = 
ORIGINATOR     = 

OBJECT_NAME    = STARLINK-35532
OBJECT_ID      = 2025-236F
CENTER_NAME    = EARTH
REF_FRAME      = TEME
TIME_SYSTEM    = UTC
MEAN_ELEMENT_THEORY = SGP/SGP4

EPOCH          = 2025-11-06T21:54:43.365024
MEAN_MOTION    = 15.74105865
ECCENTRICITY   = .0000766
INCLINATION    = 53.1570
RA_OF_ASC_NODE = 317.9737
ARG_OF_PERICENTER = 91.9436
MEAN_ANOMALY   = 268.1671

EPHEMERIS_TYPE = 0
CLASSIFICATION_TYPE = U
NORAD_CAT_ID   = 66091
ELEMENT_SET_NO = 999
REV_AT_EPOCH   = 409
BSTAR          = -.19113458E-3
MEAN_MOTION_DOT = -.28424E-3
MEAN_MOTION_DDOT = 0

CCSDS_OMM_VERS = 2.0
CREATION_DATE  = 
ORIGINATOR     = 

OBJECT_NAME    = STARLINK-35527
OBJECT_ID      = 2025-236G
CENTER_NAME    = EARTH
REF_FRAME      = TEME
TIME_SYSTEM    = UTC
MEAN_ELEMENT_THEORY = SGP/SGP4

EPOCH          = 2025-11-06T21:54:14.194656
MEAN_MOTION    = 15.74119899
ECCENTRICITY   = .00006892
INCLINATION    = 53.1569
RA_OF_ASC_NODE = 317.9708
ARG_OF_PERICENTER = 72.3106
MEAN_ANOMALY   = 287.7989

EPHEMERIS_TYPE = 0
CLASSIFICATION_TYPE = U
NORAD_CAT_ID   = 66092
ELEMENT_SET_NO = 999
REV_AT_EPOCH   = 409
BSTAR          = -.27583548E-3
MEAN_MOTION_DOT = -.40708E-3
MEAN_MOTION_DDOT = 0

CCSDS_OMM_VERS = 2.0
CREATION_DATE  = 
ORIGINATOR     = 

OBJECT_NAME    = STARLINK-35500
OBJECT_ID      = 2025-236H
CENTER_NAME    = EARTH
REF_FRAME      = TEME
TIME_SYSTEM    = UTC
MEAN_ELEMENT_THEORY = SGP/SGP4

EPOCH          = 2025-11-06T21:53:44.905920
MEAN_MOTION    = 15.74137834
ECCENTRICITY   = .0001128
INCLINATION    = 53.1569
RA_OF_ASC_NODE = 317.9685
ARG_OF_PERICENTER = 60.3251
MEAN_ANOMALY   = 299.7881

EPHEMERIS_TYPE = 0
CLASSIFICATION_TYPE = U
NORAD_CAT_ID   = 66093
ELEMENT_SET_NO = 999
REV_AT_EPOCH   = 409
BSTAR          = -.28005517E-3
MEAN_MOTION_DOT = -.41352E-3
MEAN_MOTION_DDOT = 0

CCSDS_OMM_VERS = 2.0
CREATION_DATE  = 
ORIGINATOR     = 

OBJECT_NAME    = STARLINK-35528
OBJECT_ID      = 2025-236J
CENTER_NAME    = EARTH
REF_FRAME      = TEME
TIME_SYSTEM    = UTC
MEAN_ELEMENT_THEORY = SGP/SGP4

EPOCH          = 2025-11-06T21:53:15.685440
MEAN_MOTION    = 15.74128156
ECCENTRICITY   = .0000575
INCLINATION    = 53.1568
RA_OF_ASC_NODE = 317.9662
ARG_OF_PERICENTER = 92.0399
MEAN_ANOMALY   = 268.0687

EPHEMERIS_TYPE = 0
CLASSIFICATION_TYPE = U
NORAD_CAT_ID   = 66094
ELEMENT_SET_NO = 999
REV_AT_EPOCH   = 409
BSTAR          = .70594914E-4
MEAN_MOTION_DOT = .9696E-4
MEAN_MOTION_DDOT = 0

CCSDS_OMM_VERS = 2.0
CREATION_DATE  = 
ORIGINATOR     = 

OBJECT_NAME    = STARLINK-35559
OBJECT_ID      = 2025-236K
CENTER_NAME    = EARTH
REF_FRAME      = TEME
TIME_SYSTEM    = UTC
MEAN_ELEMENT_THEORY = SGP/SGP4

EPOCH          = 2025-11-06T21:52:45.918912
MEAN_MOTION    = 15.74129112
ECCENTRICITY   = .00005133
INCLINATION    = 53.1571
RA_OF_ASC_NODE = 317.9636
ARG_OF_PERICENTER = 22.8467
MEAN_ANOMALY   = 337.2576

EPHEMERIS_TYPE = 0
CLASSIFICATION_TYPE = U
NORAD_CAT_ID   = 66095
ELEMENT_SET_NO = 999
REV_AT_EPOCH   = 409
BSTAR          = -.31498546E-3
MEAN_MOTION_DOT = -.46384E-3
MEAN_MOTION_DDOT = 0

CCSDS_OMM_VERS = 2.0
CREATION_DATE  = 
ORIGINATOR     = 

OBJECT_NAME    = STARLINK-34386
OBJECT_ID      = 2025-236L
CENTER_NAME    = EARTH
REF_FRAME      = TEME
TIME_SYSTEM    = UTC
MEAN_ELEMENT_THEORY = SGP/SGP4

EPOCH          = 2025-11-06T21:52:17.119200
MEAN_MOTION    = 15.74109148
ECCENTRICITY   = .00006193
INCLINATION    = 53.1568
RA_OF_ASC_NODE = 317.9613
ARG_OF_PERICENTER = 64.2304
MEAN_ANOMALY   = 295.8779

EPHEMERIS_TYPE = 0
CLASSIFICATION_TYPE = U
NORAD_CAT_ID   = 66096
ELEMENT_SET_NO = 999
REV_AT_EPOCH   = 409
BSTAR          = -.25345333E-3
MEAN_MOTION_DOT = -.37453E-3
MEAN_MOTION_DDOT = 0

CCSDS_OMM_VERS = 2.0
CREATION_DATE  = 
ORIGINATOR     = 

OBJECT_NAME    = STARLINK-35613
OBJECT_ID      = 2025-236M
CENTER_NAME    = EARTH
REF_FRAME      = TEME
TIME_SYSTEM    = UTC
MEAN_ELEMENT_THEORY = SGP/SGP4

EPOCH          = 2025-11-06T21:51:18.887328
MEAN_MOTION    = 15.74109325
ECCENTRICITY   = .00006298
INCLINATION    = 53.1570
RA_OF_ASC_NODE = 317.9565
ARG_OF_PERICENTER = 62.7193
MEAN_ANOMALY   = 297.3891

EPHEMERIS_TYPE = 0
CLASSIFICATION_TYPE = U
NORAD_CAT_ID   = 66097
ELEMENT_SET_NO = 999
REV_AT_EPOCH   = 409
BSTAR          = -.15951363E-3
MEAN_MOTION_DOT = -.23842E-3
MEAN_MOTION_DDOT = 0

CCSDS_OMM_VERS = 2.0
CREATION_DATE  = 
ORIGINATOR     = 

OBJECT_NAME    = STARLINK-34206
OBJECT_ID      = 2025-236N
CENTER_NAME    = EARTH
REF_FRAME      = TEME
TIME_SYSTEM    = UTC
MEAN_ELEMENT_THEORY = SGP/SGP4

EPOCH          = 2025-11-06T21:50:49.748064
MEAN_MOTION    = 15.74108476
ECCENTRICITY   = .00004986
INCLINATION    = 53.1572
RA_OF_ASC_NODE = 317.9542
ARG_OF_PERICENTER = 68.2337
MEAN_ANOMALY   = 291.8736

EPHEMERIS_TYPE = 0
CLASSIFICATION_TYPE = U
NORAD_CAT_ID   = 66098
ELEMENT_SET_NO = 999
REV_AT_EPOCH   = 408
BSTAR          = -.23331836E-3
MEAN_MOTION_DOT = -.34538E-3
MEAN_MOTION_DDOT = 0

CCSDS_OMM_VERS = 2.0
CREATION_DATE  = 
ORIGINATOR     = 

OBJECT_NAME    = STARLINK-34460
OBJECT_ID      = 2025-236P
CENTER_NAME    = EARTH
REF_FRAME      = TEME
TIME_SYSTEM    = UTC
MEAN_ELEMENT_THEORY = SGP/SGP4

EPOCH          = 2025-11-06T21:51:47.455488
MEAN_MOTION    = 15.74114411
ECCENTRICITY   = .00008472
INCLINATION    = 53.1570
RA_OF_ASC_NODE = 317.9590
ARG_OF_PERICENTER = 44.8657
MEAN_ANOMALY   = 315.2431

EPHEMERIS_TYPE = 0
CLASSIFICATION_TYPE = U
NORAD_CAT_ID   = 66099
ELEMENT_SET_NO = 999
REV_AT_EPOCH   = 409
BSTAR          = -.50459501E-3
MEAN_MOTION_DOT = -.73647E-3
MEAN_MOTION_DDOT = 0

CCSDS_OMM_VERS = 2.0
CREATION_DATE  = 
ORIGINATOR     = 

OBJECT_NAME    = STARLINK-35609
OBJECT_ID      = 2025-236Q
CENTER_NAME    = EARTH
REF_FRAME      = TEME
TIME_SYSTEM    = UTC
MEAN_ELEMENT_THEORY = SGP/SGP4

EPOCH          = 2025-11-06T21:50:19.933152
MEAN_MOTION    = 15.74270174
ECCENTRICITY   = .00011771
INCLINATION    = 53.1570
RA_OF_ASC_NODE = 317.9516
ARG_OF_PERICENTER = 157.0969
MEAN_ANOMALY   = 203.0104

EPHEMERIS_TYPE = 0
CLASSIFICATION_TYPE = U
NORAD_CAT_ID   = 66100
ELEMENT_SET_NO = 999
REV_AT_EPOCH   = 403
BSTAR          = .16622473E-2
MEAN_MOTION_DOT = .251084E-2
MEAN_MOTION_DDOT = 0

CCSDS_OMM_VERS = 2.0
CREATION_DATE  = 
ORIGINATOR     = 

OBJECT_NAME    = STARLINK-35595
OBJECT_ID      = 2025-236R
CENTER_NAME    = EARTH
REF_FRAME      = TEME
TIME_SYSTEM    = UTC
MEAN_ELEMENT_THEORY = SGP/SGP4

EPOCH          = 2025-11-06T20:18:24.822432
MEAN_MOTION    = 15.74320178
ECCENTRICITY   = .00011343
INCLINATION    = 53.1570
RA_OF_ASC_NODE = 318.2636
ARG_OF_PERICENTER = 334.4535
MEAN_ANOMALY   = 25.6429

EPHEMERIS_TYPE = 0
CLASSIFICATION_TYPE = U
NORAD_CAT_ID   = 66101
ELEMENT_SET_NO = 999
REV_AT_EPOCH   = 402
BSTAR          = .19987651E-2
MEAN_MOTION_DOT = .304652E-2
MEAN_MOTION_DDOT = 0

CCSDS_OMM_VERS = 2.0
CREATION_DATE  = 
ORIGINATOR     = 

OBJECT_NAME    = STARLINK-35599
OBJECT_ID      = 2025-236S
CENTER_NAME    = EARTH
REF_FRAME      = TEME
TIME_SYSTEM    = UTC
MEAN_ELEMENT_THEORY = SGP/SGP4

EPOCH          = 2025-11-06T21:49:21.837792
MEAN_MOTION    = 15.74246814
ECCENTRICITY   = .00010328
INCLINATION    = 53.1573
RA_OF_ASC_NODE = 317.9475
ARG_OF_PERICENTER = 139.2451
MEAN_ANOMALY   = 220.8646

EPHEMERIS_TYPE = 0
CLASSIFICATION_TYPE = U
NORAD_CAT_ID   = 66102
ELEMENT_SET_NO = 999
REV_AT_EPOCH   = 403
BSTAR          = .13566057E-2
MEAN_MOTION_DOT = .203426E-2
MEAN_MOTION_DDOT = 0

