STARLINK-35532          
1 66091U 25236F   25310.91300191 -.00028424  00000+0 -19113-3 0  9994
2 66091  53.1570 317.9737 0000766  91.9436 268.1671 15.74105865  4099
STARLINK-35527          
1 66092U 25236G   25310.91266429 -.00040708  00000+0 -27584-3 0  9990
2 66092  53.1569 317.9708 0000689  72.3106 287.7989 15.74119899  4098
STARLINK-35500          
1 66093U 25236H   25310.91232530 -.00041352  00000+0 -28006-3 0  9993
2 66093  53.1569 317.9685 0001128  60.3251 299.7881 15.74137834  4093
STARLINK-35528          
1 66094U 25236J   25310.91198710  .00009696  00000+0  70595-4 0  9999
2 66094  53.1568 317.9662 0000575  92.0399 268.0687 15.74128156  4098
STARLINK-35559          
1 66095U 25236K   25310.91164258 -.00046384  00000+0 -31499-3 0  9996
2 66095  53.1571 317.9636 0000513  22.8467 337.2576 15.74129112  4092
STARLINK-34386          
1 66096U 25236L   25310.91130925 -.00037453  00000+0 -25345-3 0  9991
2 66096  53.1568 317.9613 0000619  64.2304 295.8779 15.74109148  4092
STARLINK-35613          
1 66097U 25236M   25310.91063527 -.00023842  00000+0 -15951-3 0  9994
2 66097  53.1570 317.9565 0000629  62.7193 297.3891 15.74109325  4091
STARLINK-34206          
1 66098U 25236N   25310.91029801 -.00034538  00000+0 -23332-3 0  9998
2 66098  53.1572 317.9542 0000498  68.2337 291.8736 15.74108476  4086
STARLINK-34460          
1 66099U 25236P   25310.91096592 -.00073647  00000+0 -50460-3 0  9996
2 66099  53.1570 317.9590 0000847  44.8657 315.2431 15.74114411  4091
STARLINK-35609          
1 66100U 25236Q   25310.90995293  .00251084  00000+0  16622-2 0  9996
2 66100  53.1570 317.9516 0001177 157.0969 203.0104 15.74270174  4036
STARLINK-35595          
1 66101U 25236R   25310.84612063  .00304652  00000+0  19988-2 0  9999
2 66101  53.1570 318.2636 0001134 334.4535  25.6429 15.74320178  4024
STARLINK-35599          
1 66102U 25236S   25310.90928053  .00203426  00000+0  13566-2 0  9999
2 66102  53.1573 317.9475 0001032 139.2451 220.8646 15.74246814  4035
